{
"type": "FeatureCollection",
"name": "Llocnou_de_la_Corona",
"crs": { "type": "name", "properties": { "name": "urn:ogc:def:crs:EPSG::3035" } },
"features": [
{ "type": "Feature", "properties": { "CODE_18": "111", "Uso": "Tejido urbano continuo", "color": "#E6004D" }, "geometry": { "type": "Polygon", "coordinates": [ [ [ 3425099.815754590090364, 1875703.641613089479506 ], [ 3425055.068074848968536, 1875724.715422122040763 ], [ 3425031.68272376479581, 1875735.153906997991726 ], [ 3425024.083308319095522, 1875738.540230012265965 ], [ 3425016.260547037236392, 1875714.702412282349542 ], [ 3425015.497824124060571, 1875712.399077887879685 ], [ 3425006.81711707636714, 1875687.746322623919696 ], [ 3425003.108507068827748, 1875676.645809233188629 ], [ 3424994.452822670806199, 1875650.708011500304565 ], [ 3424986.262550043407828, 1875627.123172617284581 ], [ 3424981.687441161833704, 1875613.968620261643082 ], [ 3424976.062314367387444, 1875615.855499196099117 ], [ 3424966.75394491199404, 1875618.972334444988519 ], [ 3424955.784544085152447, 1875622.063830961007625 ], [ 3424952.031261123716831, 1875623.103765521897003 ], [ 3424945.397850663866848, 1875626.096894889837131 ], [ 3424942.319032422732562, 1875627.488200165797025 ], [ 3424910.45265627047047, 1875642.055248429765925 ], [ 3424900.850656014401466, 1875647.08695133542642 ], [ 3424878.137188422959298, 1875658.452187049202621 ], [ 3424865.80093794548884, 1875664.868134641088545 ], [ 3424863.451866290066391, 1875665.784654949093238 ], [ 3424859.54103595810011, 1875667.909887221874669 ], [ 3424854.276071025058627, 1875672.258084386354312 ], [ 3424863.959593244828284, 1875712.144235795363784 ], [ 3424864.929631484206766, 1875716.117441786918789 ], [ 3424870.544490821659565, 1875739.022736580111086 ], [ 3424873.132806117646396, 1875749.584078188287094 ], [ 3424874.687911744229496, 1875755.960872872499749 ], [ 3424879.04741661855951, 1875773.770653508137912 ], [ 3424879.748912149108946, 1875776.598577117780223 ], [ 3424880.403227841481566, 1875779.252833819016814 ], [ 3424881.823729909956455, 1875784.956186867551878 ], [ 3424886.1909683290869, 1875802.55288240686059 ], [ 3424891.783670451492071, 1875825.643432723823935 ], [ 3424889.031557074282318, 1875826.122945156414062 ], [ 3424810.012433291878551, 1875842.982889302773401 ], [ 3424811.398626318201423, 1875851.949641498271376 ], [ 3424766.176471776328981, 1875859.497573957545683 ], [ 3424708.837395000271499, 1875870.367900952231139 ], [ 3424708.837395000271499, 1875882.042404999257997 ], [ 3425103.021704998798668, 1875882.042404999257997 ], [ 3425103.021704998798668, 1875702.207500184187666 ], [ 3425099.815754590090364, 1875703.641613089479506 ] ] ] } },
{ "type": "Feature", "properties": { "CODE_18": "121", "Uso": "Zonas industriales o comerciales", "color": "#CC4DF2" }, "geometry": { "type": "Polygon", "coordinates": [ [ [ 3424936.915903872344643, 1875536.701733795227483 ], [ 3424938.495611444115639, 1875542.580212430329993 ], [ 3424938.907084077131003, 1875544.518572543747723 ], [ 3424939.333755554631352, 1875546.5552520272322 ], [ 3424939.866692755371332, 1875549.542413661489263 ], [ 3424940.306126170326024, 1875551.990472974721342 ], [ 3424941.308706334326416, 1875558.01570281595923 ], [ 3424942.072603129316121, 1875562.628442253218964 ], [ 3424942.321135012898594, 1875564.170402124756947 ], [ 3424942.755155278835446, 1875566.780734888045117 ], [ 3424943.627844210248441, 1875570.255815159762278 ], [ 3424945.942601357586682, 1875578.91626994474791 ], [ 3424950.451069103553891, 1875595.91447330173105 ], [ 3424953.352280684746802, 1875607.250592623837292 ], [ 3424954.173874938860536, 1875612.368070304393768 ], [ 3424954.990244165062904, 1875617.254451273474842 ], [ 3424955.784544085152447, 1875622.063830961007625 ], [ 3424966.75394491199404, 1875618.972334444988519 ], [ 3424976.062314367387444, 1875615.855499196099117 ], [ 3424981.687441161833704, 1875613.968620261643082 ], [ 3424986.262550043407828, 1875627.123172617284581 ], [ 3424994.452822670806199, 1875650.708011500304565 ], [ 3425003.108507068827748, 1875676.645809233188629 ], [ 3425006.81711707636714, 1875687.746322623919696 ], [ 3425015.497824124060571, 1875712.399077887879685 ], [ 3425016.260547037236392, 1875714.702412282349542 ], [ 3425024.083308319095522, 1875738.540230012265965 ], [ 3425031.68272376479581, 1875735.153906997991726 ], [ 3425055.068074848968536, 1875724.715422122040763 ], [ 3425099.815754590090364, 1875703.641613089479506 ], [ 3425103.021704998798668, 1875702.207500184187666 ], [ 3425103.021704998798668, 1875532.164995000464842 ], [ 3424935.981803878210485, 1875532.164995000464842 ], [ 3424936.915903872344643, 1875536.701733795227483 ] ] ] } },
{ "type": "Feature", "properties": { "CODE_18": "242", "Uso": "Mosaico de cultivos", "color": "#FFE64D" }, "geometry": { "type": "Polygon", "coordinates": [ [ [ 3424854.276071025058627, 1875672.258084386354312 ], [ 3424859.54103595810011, 1875667.909887221874669 ], [ 3424863.451866290066391, 1875665.784654949093238 ], [ 3424865.80093794548884, 1875664.868134641088545 ], [ 3424878.137188422959298, 1875658.452187049202621 ], [ 3424900.850656014401466, 1875647.08695133542642 ], [ 3424910.45265627047047, 1875642.055248429765925 ], [ 3424942.319032422732562, 1875627.488200165797025 ], [ 3424945.397850663866848, 1875626.096894889837131 ], [ 3424952.031261123716831, 1875623.103765521897003 ], [ 3424955.784544085152447, 1875622.063830961007625 ], [ 3424954.990244165062904, 1875617.254451273474842 ], [ 3424954.173874938860536, 1875612.368070304393768 ], [ 3424953.352280684746802, 1875607.250592623837292 ], [ 3424950.451069103553891, 1875595.91447330173105 ], [ 3424945.942601357586682, 1875578.91626994474791 ], [ 3424943.627844210248441, 1875570.255815159762278 ], [ 3424942.755155278835446, 1875566.780734888045117 ], [ 3424942.321135012898594, 1875564.170402124756947 ], [ 3424942.072603129316121, 1875562.628442253218964 ], [ 3424941.308706334326416, 1875558.01570281595923 ], [ 3424940.306126170326024, 1875551.990472974721342 ], [ 3424939.866692755371332, 1875549.542413661489263 ], [ 3424939.333755554631352, 1875546.5552520272322 ], [ 3424938.907084077131003, 1875544.518572543747723 ], [ 3424938.495611444115639, 1875542.580212430329993 ], [ 3424936.915903872344643, 1875536.701733795227483 ], [ 3424935.981803878210485, 1875532.164995000464842 ], [ 3424708.837395000271499, 1875532.164995000464842 ], [ 3424708.837395000271499, 1875870.367900952231139 ], [ 3424766.176471776328981, 1875859.497573957545683 ], [ 3424811.398626318201423, 1875851.949641498271376 ], [ 3424810.012433291878551, 1875842.982889302773401 ], [ 3424889.031557074282318, 1875826.122945156414062 ], [ 3424891.783670451492071, 1875825.643432723823935 ], [ 3424886.1909683290869, 1875802.55288240686059 ], [ 3424881.823729909956455, 1875784.956186867551878 ], [ 3424880.403227841481566, 1875779.252833819016814 ], [ 3424879.748912149108946, 1875776.598577117780223 ], [ 3424879.04741661855951, 1875773.770653508137912 ], [ 3424874.687911744229496, 1875755.960872872499749 ], [ 3424873.132806117646396, 1875749.584078188287094 ], [ 3424870.544490821659565, 1875739.022736580111086 ], [ 3424864.929631484206766, 1875716.117441786918789 ], [ 3424863.959593244828284, 1875712.144235795363784 ], [ 3424854.276071025058627, 1875672.258084386354312 ] ] ] } }
]
}
