{
"type": "FeatureCollection",
"name": "Llocnou_d'En_Fenollet",
"crs": { "type": "name", "properties": { "name": "urn:ogc:def:crs:EPSG::3035" } },
"features": [
{ "type": "Feature", "properties": { "CODE_18": "222", "Uso": "Frutales", "color": "#F2A64D" }, "geometry": { "type": "MultiPolygon", "coordinates": [ [ [ [ 3412593.365851341746747, 1832942.227497318293899 ], [ 3412628.718477145768702, 1832909.661010529845953 ], [ 3412630.316236399114132, 1832899.222387158079073 ], [ 3412635.434829148929566, 1832865.856154851382598 ], [ 3412665.997306359931827, 1832863.435615077149123 ], [ 3412685.142769649159163, 1832882.919360577361658 ], [ 3412730.877711662091315, 1832918.912540084216744 ], [ 3412766.258475956041366, 1832946.760944219306111 ], [ 3412783.202625216916203, 1832951.932580267079175 ], [ 3412794.920317990705371, 1832940.64464159286581 ], [ 3412818.880465000867844, 1832952.350326709449291 ], [ 3412818.880465000867844, 1830742.393035000190139 ], [ 3410883.913435000926256, 1830742.393035000190139 ], [ 3410883.913435000926256, 1832963.582265000790358 ], [ 3412581.927767399698496, 1832963.582265000790358 ], [ 3412593.365851341746747, 1832942.227497318293899 ] ] ], [ [ [ 3412663.790527404751629, 1832955.667490071151406 ], [ 3412659.325473366305232, 1832963.582265000790358 ], [ 3412674.066521734464914, 1832963.582265000790358 ], [ 3412663.790527404751629, 1832955.667490071151406 ] ] ] ] } },
{ "type": "Feature", "properties": { "CODE_18": "321", "Uso": "Pastizales naturales", "color": "#CCF24D" }, "geometry": { "type": "Polygon", "coordinates": [ [ [ 3412663.790527404751629, 1832955.667490071151406 ], [ 3412674.066521734464914, 1832963.582265000790358 ], [ 3412818.880465000867844, 1832963.582265000790358 ], [ 3412818.880465000867844, 1832952.350326709449291 ], [ 3412794.920317990705371, 1832940.64464159286581 ], [ 3412783.202625216916203, 1832951.932580267079175 ], [ 3412766.258475956041366, 1832946.760944219306111 ], [ 3412730.877711662091315, 1832918.912540084216744 ], [ 3412685.142769649159163, 1832882.919360577361658 ], [ 3412665.997306359931827, 1832863.435615077149123 ], [ 3412635.434829148929566, 1832865.856154851382598 ], [ 3412630.316236399114132, 1832899.222387158079073 ], [ 3412628.718477145768702, 1832909.661010529845953 ], [ 3412593.365851341746747, 1832942.227497318293899 ], [ 3412581.927767399698496, 1832963.582265000790358 ], [ 3412659.325473366305232, 1832963.582265000790358 ], [ 3412663.790527404751629, 1832955.667490071151406 ] ] ] } }
]
}
