{
"type": "FeatureCollection",
"name": "Rafal",
"crs": { "type": "name", "properties": { "name": "urn:ogc:def:crs:EPSG::3035" } },
"features": [
{ "type": "Feature", "properties": { "CODE_18": "112", "Uso": "Tejido urbano discontinuo", "color": "#FF0000" }, "geometry": { "type": "MultiPolygon", "coordinates": [ [ [ [ 3365159.540965092368424, 1736603.117702809628099 ], [ 3365228.523404497653246, 1736627.685253161936998 ], [ 3365218.111874502152205, 1736648.944197906879708 ], [ 3365232.964150889310986, 1736655.860013023484498 ], [ 3365244.235918898135424, 1736661.115469942800701 ], [ 3365221.798129521310329, 1736742.972105056978762 ], [ 3365237.615653446409851, 1736745.264037846354768 ], [ 3365265.24258152814582, 1736749.25617941073142 ], [ 3365269.419970824383199, 1736739.392393357120454 ], [ 3365284.30503547238186, 1736704.331496816826984 ], [ 3365322.20618400676176, 1736615.083750653546304 ], [ 3365340.001361689995974, 1736620.139278881251812 ], [ 3365355.521513336338103, 1736624.556191989220679 ], [ 3365335.220957082696259, 1736710.560026642400771 ], [ 3365354.287146151997149, 1736721.559493851149455 ], [ 3365361.554738383274525, 1736716.419879019958898 ], [ 3365367.12225903198123, 1736712.480225609382614 ], [ 3365374.452888607047498, 1736683.281807781662792 ], [ 3365382.396356027107686, 1736651.623856847872958 ], [ 3365408.30749728390947, 1736662.329548609210178 ], [ 3365419.679845842998475, 1736627.390437476104125 ], [ 3365361.859804319217801, 1736596.460035994183272 ], [ 3365364.496521031484008, 1736587.104774902574718 ], [ 3365384.532217802479863, 1736516.075933455955237 ], [ 3365393.027804288081825, 1736492.123910035006702 ], [ 3365372.484471914358437, 1736485.460753752617165 ], [ 3365356.30913615738973, 1736480.215997786028311 ], [ 3365338.65796933369711, 1736523.716554358135909 ], [ 3365323.384038883727044, 1736519.379521476104856 ], [ 3365305.342633632943034, 1736514.244100898969918 ], [ 3365344.364596403203905, 1736402.475669999606907 ], [ 3365150.175870000384748, 1736402.475669999606907 ], [ 3365150.175870000384748, 1736623.111963748931885 ], [ 3365159.540965092368424, 1736603.117702809628099 ] ] ], [ [ [ 3366520.907813990488648, 1737108.643170117866248 ], [ 3366584.280649627558887, 1737020.79726842418313 ], [ 3366643.677008842118084, 1736799.632106414064765 ], [ 3366663.30824978929013, 1736726.546348075149581 ], [ 3366654.209903390146792, 1736725.139805153245106 ], [ 3366518.198681347537786, 1736706.221327248495072 ], [ 3366484.534143597818911, 1736701.541226783301681 ], [ 3366380.320182591676712, 1736680.249713707715273 ], [ 3366140.023734576068819, 1736596.309080301783979 ], [ 3365999.745536358561367, 1736571.957244527060539 ], [ 3366008.78707604855299, 1736525.780673606321216 ], [ 3366019.264739151112735, 1736472.322832467732951 ], [ 3366008.288626986555755, 1736470.614576832624152 ], [ 3365986.168626894243062, 1736467.165567157557234 ], [ 3365957.598375324625522, 1736462.72548903641291 ], [ 3365955.241795827634633, 1736455.733267297968268 ], [ 3365955.303326942026615, 1736452.660341470967978 ], [ 3365955.426520716398954, 1736446.715960280038416 ], [ 3365959.158869459759444, 1736422.358630534727126 ], [ 3365997.306552599649876, 1736425.334694955265149 ], [ 3366008.656696578487754, 1736411.445645216852427 ], [ 3366032.882291943300515, 1736411.410825742175803 ], [ 3366033.856070060282946, 1736402.475669999606907 ], [ 3365855.869920179247856, 1736402.475669999606907 ], [ 3365850.541471202857792, 1736403.363071761094034 ], [ 3365847.144224820658565, 1736407.988917551469058 ], [ 3365843.425148076377809, 1736413.041122677735984 ], [ 3365869.144200436770916, 1736426.831702361116186 ], [ 3365903.334243532270193, 1736432.824238724075258 ], [ 3365930.831999009009451, 1736444.192882486153394 ], [ 3365938.849243592470884, 1736454.544238814385608 ], [ 3365933.994517772924155, 1736486.170956233050674 ], [ 3365926.54746956191957, 1736487.924988416722044 ], [ 3365918.451339113060385, 1736489.827418843051419 ], [ 3365906.000423989724368, 1736506.781196292024106 ], [ 3365877.733431055210531, 1736511.488804159220308 ], [ 3365866.481690919958055, 1736529.300733091076836 ], [ 3365862.260586864314973, 1736543.826105283340439 ], [ 3365875.336600572336465, 1736552.37787342723459 ], [ 3365868.526931540574878, 1736599.109729654621333 ], [ 3365917.921313512139022, 1736613.128263881895691 ], [ 3365906.273113674018532, 1736653.009231315925717 ], [ 3365895.561382116284221, 1736689.681655886815861 ], [ 3365880.636538916267455, 1736740.797596333548427 ], [ 3365857.234534138813615, 1736804.417625969741493 ], [ 3365837.014256054535508, 1736859.387666635215282 ], [ 3365764.753631323575974, 1736833.138779065338895 ], [ 3365729.333707057405263, 1736820.268821414327249 ], [ 3365681.408166534267366, 1736802.862642089137807 ], [ 3365674.689649165142328, 1736841.298238236457109 ], [ 3365651.06561595434323, 1736863.004613990429789 ], [ 3365617.397428068798035, 1736848.271342215361074 ], [ 3365601.064006272703409, 1736841.118528941180557 ], [ 3365575.074000156484544, 1736895.689792692195624 ], [ 3365567.053341495804489, 1736912.530645404011011 ], [ 3365583.432515546679497, 1736925.80124115315266 ], [ 3365601.442834357731044, 1736890.814357798080891 ], [ 3365630.60746229859069, 1736905.511867217253894 ], [ 3365617.582857587374747, 1736937.885119599523023 ], [ 3365672.306982216890901, 1736955.428275386337191 ], [ 3365633.409379079006612, 1737041.869789430405945 ], [ 3365654.520988611504436, 1737050.795816683443263 ], [ 3365482.78058715024963, 1737182.797567313769832 ], [ 3365483.534781553316861, 1737152.115231615724042 ], [ 3365494.810853512492031, 1737099.228656868450344 ], [ 3365474.595418431330472, 1737100.469974829582497 ], [ 3365460.957411390729249, 1737091.770136492792517 ], [ 3365438.933122438378632, 1737077.717052396386862 ], [ 3365447.281558745540679, 1737033.811128816334531 ], [ 3365403.546584665775299, 1737014.518507448025048 ], [ 3365361.340592630207539, 1736998.719054360641167 ], [ 3365258.005342651158571, 1737120.204768928000703 ], [ 3365256.823706431314349, 1737121.066525211092085 ], [ 3365255.791082155425102, 1737122.104956494411454 ], [ 3365254.942683753091842, 1737123.283972993027419 ], [ 3365254.55111430818215, 1737124.054429473122582 ], [ 3365254.285445306450129, 1737124.582270158221945 ], [ 3365253.866409811656922, 1737125.840890603605658 ], [ 3365253.649411371909082, 1737127.156531301094219 ], [ 3365253.617047242820263, 1737128.481717114336789 ], [ 3365253.786176611669362, 1737129.793490300187841 ], [ 3365254.047352884430438, 1737130.707090201321989 ], [ 3365254.152312896680087, 1737131.062373854685575 ], [ 3365254.672221005428582, 1737132.204896373907104 ], [ 3365255.343453429639339, 1737133.271839387482032 ], [ 3365256.084702290128917, 1737135.133101720362902 ], [ 3365257.167480511590838, 1737137.834131210576743 ], [ 3365257.666718795895576, 1737139.977499152068049 ], [ 3365258.273499911651015, 1737142.626842201687396 ], [ 3365258.43324524955824, 1737144.746160441311076 ], [ 3365258.645060972310603, 1737147.541890085674822 ], [ 3365258.275638121180236, 1737152.469539428828284 ], [ 3365258.873314161784947, 1737154.122996797552332 ], [ 3365259.744947894942015, 1737156.506579386070371 ], [ 3365261.66972613800317, 1737160.326706476509571 ], [ 3365262.237086011096835, 1737161.179231669986621 ], [ 3365264.035561053548008, 1737163.902096892474219 ], [ 3365265.63594469986856, 1737165.791527105495334 ], [ 3365266.812133612111211, 1737167.167277383385226 ], [ 3365269.197009822819382, 1737168.795064832316712 ], [ 3365261.059475991874933, 1737178.381604595808312 ], [ 3365326.236498204991221, 1737204.892613051459193 ], [ 3365354.828381310217083, 1737218.768511035479605 ], [ 3365378.399933637585491, 1737230.216409418499097 ], [ 3365383.630848578177392, 1737238.775107252644375 ], [ 3365392.035201709717512, 1737252.537767125759274 ], [ 3365365.239822926931083, 1737273.130665684584528 ], [ 3365339.579609741456807, 1737282.794802005169913 ], [ 3365216.75515833357349, 1737237.988990747136995 ], [ 3365205.985444057732821, 1737260.436225201701745 ], [ 3365277.567981402389705, 1737281.961073081241921 ], [ 3365287.326936826575547, 1737284.899418393848464 ], [ 3365318.064009510912001, 1737300.432920050108805 ], [ 3365320.594766113907099, 1737311.57723336503841 ], [ 3365330.927332437131554, 1737323.16495658759959 ], [ 3365333.861761366482824, 1737326.464296153048053 ], [ 3365423.977013944648206, 1737387.710155498469248 ], [ 3365413.667157574091107, 1737399.47199118649587 ], [ 3365399.802495887968689, 1737415.291675450978801 ], [ 3365380.742402986157686, 1737433.951423921855167 ], [ 3365355.971249670721591, 1737415.157340647419915 ], [ 3365336.973783463705331, 1737397.255315446993336 ], [ 3365319.288335602730513, 1737379.749317444628105 ], [ 3365336.850982586387545, 1737359.475140432594344 ], [ 3365317.179708867799491, 1737333.000886363908648 ], [ 3365303.132297206670046, 1737322.948746219510213 ], [ 3365223.070399441756308, 1737380.905936687951908 ], [ 3365212.475559649057686, 1737377.089291504584253 ], [ 3365195.709212593734264, 1737371.973367602797225 ], [ 3365167.831648323684931, 1737363.459296620218083 ], [ 3365150.175870000384748, 1737361.745024398434907 ], [ 3365150.175870000384748, 1737544.871611373964697 ], [ 3365181.637207314837724, 1737467.731088949833065 ], [ 3365203.958711505867541, 1737464.012919588945806 ], [ 3365223.981518979649991, 1737454.018209952162579 ], [ 3365215.40024708583951, 1737486.09521957510151 ], [ 3365248.667277422267944, 1737498.325826830696315 ], [ 3365257.847115912474692, 1737486.026739886263385 ], [ 3365292.507170108146966, 1737450.512524355435744 ], [ 3365307.858183418400586, 1737460.972155197057873 ], [ 3365328.666914771310985, 1737474.058956715278327 ], [ 3365351.468688786029816, 1737488.405605355976149 ], [ 3365365.001917057670653, 1737499.157963113160804 ], [ 3365417.931373385712504, 1737469.809155144030228 ], [ 3365445.73145129904151, 1737536.115241139661521 ], [ 3365483.658129226882011, 1737516.579784164903685 ], [ 3365490.946985262446105, 1737529.833116524387151 ], [ 3365498.653243390377611, 1737543.822909214533865 ], [ 3365511.292879135347903, 1737535.199185857316479 ], [ 3365525.867226801812649, 1737525.245735645759851 ], [ 3365530.672338028904051, 1737529.402170635061339 ], [ 3365562.84386169956997, 1737517.253134308150038 ], [ 3365544.221475252881646, 1737477.144194658612832 ], [ 3365515.943214101251215, 1737416.186902273911983 ], [ 3365493.566887268796563, 1737385.04518120829016 ], [ 3365526.470907879061997, 1737365.33899690466933 ], [ 3365571.700354713015258, 1737450.211286851204932 ], [ 3365650.824700158089399, 1737415.714020290412009 ], [ 3365643.438186853192747, 1737367.185073451139033 ], [ 3365623.719919278286397, 1737343.81153232534416 ], [ 3365702.747855926863849, 1737286.682576641440392 ], [ 3365697.485403413884342, 1737279.92242070264183 ], [ 3365861.93614148767665, 1737146.163652518996969 ], [ 3365876.100296991411597, 1737154.977454760344699 ], [ 3365880.845021866261959, 1737157.935010003158823 ], [ 3365913.605979249347001, 1737168.245592921273783 ], [ 3365947.307642861735076, 1737178.852885647676885 ], [ 3365936.566813616547734, 1737223.287968792486936 ], [ 3365988.588368563447148, 1737246.611025896156207 ], [ 3365995.667877795640379, 1737240.102430579485372 ], [ 3366040.460503041278571, 1737251.300678135827184 ], [ 3366039.289877639617771, 1737270.153982482850552 ], [ 3366086.891705215442926, 1737282.224337342195213 ], [ 3366093.840157540515065, 1737257.069183728424832 ], [ 3366201.616171924397349, 1737301.76412155921571 ], [ 3366197.107515606563538, 1737311.189311407739297 ], [ 3366182.203720901161432, 1737342.313785582780838 ], [ 3366183.37674901727587, 1737347.881148696644232 ], [ 3366184.967026786413044, 1737355.454408450284973 ], [ 3366185.920487094670534, 1737359.980347748845816 ], [ 3366187.084544081240892, 1737365.488757720217109 ], [ 3366382.069349446333945, 1737443.645734062418342 ], [ 3366359.211771652568132, 1737508.897973021958023 ], [ 3366355.791785730049014, 1737518.655664238147438 ], [ 3366467.979087114334106, 1737574.615334161324427 ], [ 3366501.286648849956691, 1737510.423612563172355 ], [ 3366524.325995489954948, 1737521.718867797637358 ], [ 3366541.910088989883661, 1737530.336047309683636 ], [ 3366578.389471095055342, 1737548.228558514034376 ], [ 3366620.35447755176574, 1737558.568337196484208 ], [ 3366638.611591166350991, 1737563.517108700005338 ], [ 3366647.472359378356487, 1737545.176495942519978 ], [ 3366649.987655026372522, 1737539.972148442640901 ], [ 3366665.236074585001916, 1737508.437903613783419 ], [ 3366661.146383712533861, 1737490.460706151556224 ], [ 3366704.825441913679242, 1737405.88398873526603 ], [ 3366776.266265260986984, 1737415.31499330396764 ], [ 3366801.735035401303321, 1737308.443545623682439 ], [ 3366728.514595003798604, 1737287.319977873004973 ], [ 3366735.552621493581682, 1737253.324842817615718 ], [ 3366739.378392990678549, 1737234.86575410887599 ], [ 3366649.209436004981399, 1737208.565420510014519 ], [ 3366638.328985919244587, 1737234.365013485774398 ], [ 3366605.03709086496383, 1737227.920317583018914 ], [ 3366608.431768484879285, 1737206.027016247622669 ], [ 3366597.702766763046384, 1737201.930140807991847 ], [ 3366584.131659520789981, 1737196.744998779380694 ], [ 3366594.003332789987326, 1737168.262265856610611 ], [ 3366604.715165782254189, 1737137.342628732789308 ], [ 3366520.907813990488648, 1737108.643170117866248 ] ] ] ] } },
{ "type": "Feature", "properties": { "CODE_18": "212", "Uso": "Terrenos regados permanentemente", "color": "#FFFF00" }, "geometry": { "type": "MultiPolygon", "coordinates": [ [ [ [ 3367151.056024249177426, 1736511.137040423229337 ], [ 3367147.038355797529221, 1736552.879630557494238 ], [ 3367144.018530508503318, 1736552.495896890293807 ], [ 3367076.787270839791745, 1736544.04515843372792 ], [ 3367090.005522466264665, 1736475.090734804747626 ], [ 3367175.690529999323189, 1736477.571746281115338 ], [ 3367175.690529999323189, 1736476.725358795840293 ], [ 3367156.798886080272496, 1736451.50713913468644 ], [ 3367170.019342025741935, 1736417.541111253434792 ], [ 3367175.690529999323189, 1736402.97344110859558 ], [ 3367175.690529999323189, 1736402.475669999606907 ], [ 3366033.856070060282946, 1736402.475669999606907 ], [ 3366032.882291943300515, 1736411.410825742175803 ], [ 3366008.656696578487754, 1736411.445645216852427 ], [ 3365997.306552599649876, 1736425.334694955265149 ], [ 3365959.158869459759444, 1736422.358630534727126 ], [ 3365955.426520716398954, 1736446.715960280038416 ], [ 3365955.303326942026615, 1736452.660341470967978 ], [ 3365955.241795827634633, 1736455.733267297968268 ], [ 3365957.598375324625522, 1736462.72548903641291 ], [ 3365986.168626894243062, 1736467.165567157557234 ], [ 3366008.288626986555755, 1736470.614576832624152 ], [ 3366019.264739151112735, 1736472.322832467732951 ], [ 3366008.78707604855299, 1736525.780673606321216 ], [ 3365999.745536358561367, 1736571.957244527060539 ], [ 3366140.023734576068819, 1736596.309080301783979 ], [ 3366380.320182591676712, 1736680.249713707715273 ], [ 3366484.534143597818911, 1736701.541226783301681 ], [ 3366518.198681347537786, 1736706.221327248495072 ], [ 3366654.209903390146792, 1736725.139805153245106 ], [ 3366663.30824978929013, 1736726.546348075149581 ], [ 3366707.958226788789034, 1736734.33380847144872 ], [ 3366741.785834135022014, 1736593.238593585789204 ], [ 3366761.487133857794106, 1736492.658273173030466 ], [ 3366806.847333786543459, 1736481.105513392714784 ], [ 3366821.383009264711291, 1736479.72278443351388 ], [ 3366825.426241109147668, 1736479.341688786400482 ], [ 3366822.226263954304159, 1736492.084830108331516 ], [ 3366817.044139981269836, 1736512.734061641152948 ], [ 3366814.713913638144732, 1736521.161537778796628 ], [ 3366865.569823250174522, 1736521.981987425126135 ], [ 3366869.385760778095573, 1736529.335663128178567 ], [ 3366913.161189198493958, 1736530.841517863096669 ], [ 3366935.699341991916299, 1736531.622163271065801 ], [ 3366940.200977378990501, 1736481.557942984858528 ], [ 3366946.105433496646583, 1736479.698305214289576 ], [ 3366952.613292524591088, 1736477.657599674304947 ], [ 3366958.187767469789833, 1736475.903282224433497 ], [ 3366988.064778313972056, 1736474.887729715090245 ], [ 3367018.45844449242577, 1736473.856694814283401 ], [ 3367004.387408030219376, 1736549.511689603328705 ], [ 3367074.394026364665478, 1736567.171689855866134 ], [ 3367066.95666391402483, 1736602.492071829270571 ], [ 3367061.887434926815331, 1736626.557853500824422 ], [ 3367155.281725533306599, 1736656.332036057952791 ], [ 3367130.6813451978378, 1736804.362592584220693 ], [ 3367154.156017890200019, 1736818.184962652390823 ], [ 3367175.690529999323189, 1736818.502345509128645 ], [ 3367175.690529999323189, 1736513.280976609094068 ], [ 3367151.056024249177426, 1736511.137040423229337 ] ] ], [ [ [ 3365725.00299596786499, 1736494.520932088140398 ], [ 3365749.779581622220576, 1736502.252357526915148 ], [ 3365751.645783262792975, 1736502.344536826945841 ], [ 3365753.967837927397341, 1736503.559677374083549 ], [ 3365862.260586864314973, 1736543.826105283340439 ], [ 3365866.481690919958055, 1736529.300733091076836 ], [ 3365877.733431055210531, 1736511.488804159220308 ], [ 3365906.000423989724368, 1736506.781196292024106 ], [ 3365918.451339113060385, 1736489.827418843051419 ], [ 3365926.54746956191957, 1736487.924988416722044 ], [ 3365933.994517772924155, 1736486.170956233050674 ], [ 3365938.849243592470884, 1736454.544238814385608 ], [ 3365930.831999009009451, 1736444.192882486153394 ], [ 3365903.334243532270193, 1736432.824238724075258 ], [ 3365869.144200436770916, 1736426.831702361116186 ], [ 3365843.425148076377809, 1736413.041122677735984 ], [ 3365847.144224820658565, 1736407.988917551469058 ], [ 3365850.541471202857792, 1736403.363071761094034 ], [ 3365855.869920179247856, 1736402.475669999606907 ], [ 3365773.086966830771416, 1736402.475669999606907 ], [ 3365725.00299596786499, 1736494.520932088140398 ] ] ], [ [ [ 3367171.683894685469568, 1738165.71577558782883 ], [ 3367175.690529999323189, 1738169.271039570914581 ], [ 3367175.690529999323189, 1738164.341894983546808 ], [ 3367171.683894685469568, 1738165.71577558782883 ] ] ], [ [ [ 3367148.566837731283158, 1738316.706404719734564 ], [ 3367089.712618866469711, 1738283.861210220260546 ], [ 3367150.311638162471354, 1738177.808119125198573 ], [ 3367120.638594896998256, 1738177.420026984531432 ], [ 3367108.149576923809946, 1738167.309436173643917 ], [ 3367071.49243934545666, 1738137.618554677581415 ], [ 3367066.212574634235352, 1738135.223535934463143 ], [ 3367059.488000477664173, 1738132.162383188260719 ], [ 3367093.803591029252857, 1738052.066406817641109 ], [ 3367076.388895862270147, 1738037.809268885059282 ], [ 3367059.975818052422255, 1738024.382730928948149 ], [ 3367012.370011919178069, 1737986.410247080028057 ], [ 3366989.481305001769215, 1737968.1482748540584 ], [ 3366923.937917474657297, 1737916.962920879246667 ], [ 3366847.389543431811035, 1737857.193101111566648 ], [ 3366877.227649589069188, 1737805.578346938593313 ], [ 3366904.564534143544734, 1737824.248034656513482 ], [ 3366940.033716139383614, 1737848.474688273854554 ], [ 3366983.907795306295156, 1737878.444643633905798 ], [ 3367048.670869114808738, 1737923.634612638968974 ], [ 3367086.069418544881046, 1737877.430477639194578 ], [ 3367100.585162144619972, 1737884.342361639719456 ], [ 3367130.025533528067172, 1737830.114302771398798 ], [ 3367150.083277195226401, 1737835.861536335432902 ], [ 3367175.690529999323189, 1737843.194813728798181 ], [ 3367175.690529999323189, 1737532.360376734519377 ], [ 3367167.522306100465357, 1737532.149430031422526 ], [ 3367156.172470470890403, 1737546.038252613972872 ], [ 3367093.59310417342931, 1737639.091045829234645 ], [ 3367110.604874540120363, 1737653.576483756536618 ], [ 3367080.504249539226294, 1737694.575514102587476 ], [ 3367066.903813384007663, 1737684.851497166091576 ], [ 3367017.587228783406317, 1737670.406067270319909 ], [ 3367013.08369822986424, 1737691.164255923125893 ], [ 3367008.882969378028065, 1737710.501876781927422 ], [ 3366987.871546698268503, 1737714.000832999357954 ], [ 3366970.999290786683559, 1737718.150446912972257 ], [ 3366950.779000105336308, 1737726.847173877293244 ], [ 3366929.051193909719586, 1737734.465106169926003 ], [ 3366919.514702657237649, 1737730.179680345114321 ], [ 3366911.716321151703596, 1737726.682798955356702 ], [ 3366893.942440730519593, 1737717.019120963755995 ], [ 3366877.953439467586577, 1737708.317545586498454 ], [ 3366829.430811391212046, 1737796.370786477578804 ], [ 3366785.090920373797417, 1737770.427792218048126 ], [ 3366802.012552370782942, 1737748.951485072262585 ], [ 3366832.502367683686316, 1737683.899470698554069 ], [ 3366814.684025326278061, 1737674.545461389003322 ], [ 3366753.485814950894564, 1737642.413234012434259 ], [ 3366713.740517133846879, 1737699.677521509118378 ], [ 3366696.194346376694739, 1737694.318176051368937 ], [ 3366685.500147136393934, 1737691.051716770511121 ], [ 3366645.424977034796029, 1737755.040560703957453 ], [ 3366652.398766643367708, 1737758.936664378968999 ], [ 3366667.489768219180405, 1737767.354502909816802 ], [ 3366673.680817436426878, 1737790.311312774661928 ], [ 3366655.648034815210849, 1737813.312710907775909 ], [ 3366638.519130910281092, 1737833.493807004299015 ], [ 3366647.587114547379315, 1737839.982958353823051 ], [ 3366642.277487953193486, 1737858.185632833978161 ], [ 3366627.056290548294783, 1737892.838729345006868 ], [ 3366618.283663178328425, 1737912.827119936933741 ], [ 3366614.632707880809903, 1737950.751913303276524 ], [ 3366615.805114149581641, 1737958.253748835762963 ], [ 3366616.578742461279035, 1737963.202569285873324 ], [ 3366597.374163429718465, 1737964.799033039947972 ], [ 3366567.61666648928076, 1737967.266432262025774 ], [ 3366608.578001832589507, 1738041.747751498129219 ], [ 3366634.477628362365067, 1738088.080086460337043 ], [ 3366646.189261331688613, 1738077.505638962844387 ], [ 3366696.024764877278358, 1738032.5138567131944 ], [ 3366721.183153485879302, 1738153.603263898054138 ], [ 3366701.578266599215567, 1738163.467225802829489 ], [ 3366673.665068068541586, 1738177.515662737656385 ], [ 3366645.541512043215334, 1738134.223478840198368 ], [ 3366623.9941072226502, 1738116.483798547880724 ], [ 3366611.017253389116377, 1738127.571222082944587 ], [ 3366608.50541631411761, 1738129.722407264634967 ], [ 3366601.478491311427206, 1738130.89269305486232 ], [ 3366594.064490161370486, 1738132.127445311285555 ], [ 3366591.663825334515423, 1738089.880857371725142 ], [ 3366571.40228804666549, 1738065.479207283817232 ], [ 3366553.755958723369986, 1738044.218552309088409 ], [ 3366510.299140696413815, 1738059.445300149498507 ], [ 3366499.60238353535533, 1738038.578754381742328 ], [ 3366469.685895106755197, 1737980.231338691199198 ], [ 3366442.953051516786218, 1737972.684542879695073 ], [ 3366437.957815455738455, 1737957.51778171188198 ], [ 3366459.423213270492852, 1737910.802796250209212 ], [ 3366478.403344503603876, 1737869.488768268609419 ], [ 3366501.391995947808027, 1737877.70954771200195 ], [ 3366513.995346534997225, 1737882.21957587194629 ], [ 3366529.434817416127771, 1737886.307647890411317 ], [ 3366560.640617020893842, 1737817.136147068114951 ], [ 3366569.023078265599906, 1737783.752934736432508 ], [ 3366562.420215995050967, 1737731.547316726064309 ], [ 3366543.690525239799172, 1737714.668261065846309 ], [ 3366534.574665796477348, 1737725.515583050204441 ], [ 3366526.110343533568084, 1737722.925571100786328 ], [ 3366521.840104963164777, 1737730.30618961318396 ], [ 3366490.38577308319509, 1737718.216110002249479 ], [ 3366435.448288798332214, 1737852.644650217145681 ], [ 3366394.62504421453923, 1737964.73468308034353 ], [ 3366337.947286890354007, 1737970.859629277838394 ], [ 3366293.693529352545738, 1737954.242041142657399 ], [ 3366360.291733565274626, 1737799.212385023711249 ], [ 3366355.876569430809468, 1737797.751418821280822 ], [ 3366345.161835815757513, 1737794.216451765969396 ], [ 3366423.872396449558437, 1737617.33312675030902 ], [ 3366430.813695511780679, 1737620.146547533804551 ], [ 3366442.527324422262609, 1737624.895425398601219 ], [ 3366434.786390452180058, 1737644.842954577179626 ], [ 3366454.522491606883705, 1737643.863193046534434 ], [ 3366457.502736611757427, 1737643.71947581670247 ], [ 3366475.109796017408371, 1737662.115329522639513 ], [ 3366486.795278618112206, 1737667.815924719674513 ], [ 3366495.469656883738935, 1737672.053424789570272 ], [ 3366529.702286554034799, 1737605.047851209295914 ], [ 3366519.324202257208526, 1737598.776896226452664 ], [ 3366541.910088989883661, 1737530.336047309683636 ], [ 3366524.325995489954948, 1737521.718867797637358 ], [ 3366501.286648849956691, 1737510.423612563172355 ], [ 3366467.979087114334106, 1737574.615334161324427 ], [ 3366355.791785730049014, 1737518.655664238147438 ], [ 3366359.211771652568132, 1737508.897973021958023 ], [ 3366382.069349446333945, 1737443.645734062418342 ], [ 3366187.084544081240892, 1737365.488757720217109 ], [ 3366185.920487094670534, 1737359.980347748845816 ], [ 3366184.967026786413044, 1737355.454408450284973 ], [ 3366172.665950922295451, 1737388.099939218256623 ], [ 3366161.686298219487071, 1737421.804907284909859 ], [ 3366154.592742742970586, 1737443.599160965764895 ], [ 3366218.56343765091151, 1737464.660304769407958 ], [ 3366227.327384186908603, 1737446.285292200278491 ], [ 3366237.816560621839017, 1737424.268089510733262 ], [ 3366279.850636791903526, 1737439.139763577375561 ], [ 3366270.815528036095202, 1737466.899155682884157 ], [ 3366257.368645028211176, 1737500.440747239161283 ], [ 3366249.202122124377638, 1737520.801732001360506 ], [ 3366333.162022244185209, 1737557.12174026039429 ], [ 3366292.924981922842562, 1737655.684204615652561 ], [ 3366201.138650862965733, 1737625.110740715870634 ], [ 3366194.210119157563895, 1737643.44208456738852 ], [ 3366120.395922704134136, 1737618.418934452114627 ], [ 3366100.437409495003521, 1737653.841147177387029 ], [ 3366112.050845606252551, 1737659.402531802887097 ], [ 3366132.611676576547325, 1737669.256631332915276 ], [ 3366155.77342678559944, 1737684.631728187669069 ], [ 3366169.47276383638382, 1737693.734568531392142 ], [ 3366160.501093582250178, 1737729.130307455779985 ], [ 3366180.869801050983369, 1737732.306638249196112 ], [ 3366191.730148837435991, 1737734.65872356062755 ], [ 3366198.001439103391021, 1737736.012034419458359 ], [ 3366207.265481969807297, 1737738.841556009836495 ], [ 3366227.167736491654068, 1737756.069260567892343 ], [ 3366208.236825197935104, 1737808.538071059854701 ], [ 3366190.136514904908836, 1737848.879649073118344 ], [ 3366183.229195502586663, 1737844.952390908962116 ], [ 3366166.562656443566084, 1737835.477314683608711 ], [ 3366126.75665026390925, 1737812.779445396270603 ], [ 3366106.536469926591963, 1737821.476715065538883 ], [ 3366071.449872309342027, 1737873.976774766109884 ], [ 3366064.858777154702693, 1737889.844175427686423 ], [ 3366042.874599806033075, 1737942.711002838565037 ], [ 3366158.561744558159262, 1737942.101272599073127 ], [ 3366163.214180717244744, 1737926.133638477651402 ], [ 3366169.167867839336395, 1737905.677581787342206 ], [ 3366206.27734312415123, 1737919.485271648736671 ], [ 3366202.675760502461344, 1737940.083534196484834 ], [ 3366213.615588012617081, 1737994.236918236827478 ], [ 3366189.78664064919576, 1737996.875818461179733 ], [ 3366118.683237283024937, 1738007.378422432811931 ], [ 3365974.699652500450611, 1738016.71114934887737 ], [ 3365944.705128378234804, 1738023.03689950867556 ], [ 3365952.601383826695383, 1738048.369573861826211 ], [ 3365913.011517005041242, 1738053.633816698566079 ], [ 3365889.380026526283473, 1738057.569918119115755 ], [ 3365863.579724035225809, 1738073.866396731929854 ], [ 3365855.858458803966641, 1738085.851941970875487 ], [ 3365878.926290751434863, 1738117.523461537668481 ], [ 3365898.138891098089516, 1738160.83884790702723 ], [ 3365925.93281966727227, 1738210.119846278335899 ], [ 3365930.265984320547432, 1738228.69141513062641 ], [ 3365933.708155754487962, 1738243.482206146465614 ], [ 3365834.598421965260059, 1738299.97751227999106 ], [ 3365806.967813312541693, 1738321.898560772184283 ], [ 3365793.244737098924816, 1738320.194741307524964 ], [ 3365785.720280568115413, 1738346.040834994288161 ], [ 3365782.637606104835868, 1738356.609035376925021 ], [ 3365764.556556840892881, 1738385.101929998956621 ], [ 3366282.717534691095352, 1738385.101929998956621 ], [ 3366282.574239738285542, 1738383.476633213693276 ], [ 3366302.844221911858767, 1738385.101929998956621 ], [ 3367175.690529999323189, 1738385.101929998956621 ], [ 3367175.690529999323189, 1738269.004514681641012 ], [ 3367148.566837731283158, 1738316.706404719734564 ] ] ], [ [ [ 3367167.309857010375708, 1737915.877038645325229 ], [ 3367175.690529999323189, 1737922.297991519095376 ], [ 3367175.690529999323189, 1737901.815951163647696 ], [ 3367167.309857010375708, 1737915.877038645325229 ] ] ], [ [ [ 3367153.515190198551863, 1737114.281347124837339 ], [ 3367173.58627799898386, 1737184.241674742428586 ], [ 3367144.571360928937793, 1737197.072286060079932 ], [ 3367115.598026967607439, 1737165.910461713094264 ], [ 3367096.757165584713221, 1737157.059035687940195 ], [ 3367092.319447372108698, 1737216.431961596943438 ], [ 3367079.89983161399141, 1737285.143361438298598 ], [ 3367067.379145230166614, 1737317.885246581630781 ], [ 3367058.0974808963947, 1737380.734712057979777 ], [ 3367096.211247909814119, 1737392.784227309981361 ], [ 3367116.085725066252053, 1737399.065760193392634 ], [ 3367147.540010252967477, 1737411.156336898216978 ], [ 3367175.690529999323189, 1737448.837033120449632 ], [ 3367175.690529999323189, 1737109.278433181345463 ], [ 3367153.515190198551863, 1737114.281347124837339 ] ] ] ] } },
{ "type": "Feature", "properties": { "CODE_18": "222", "Uso": "Frutales", "color": "#F2A64D" }, "geometry": { "type": "MultiPolygon", "coordinates": [ [ [ [ 3366282.574239738285542, 1738383.476633213693276 ], [ 3366282.717534691095352, 1738385.101929998956621 ], [ 3366302.844221911858767, 1738385.101929998956621 ], [ 3366282.574239738285542, 1738383.476633213693276 ] ] ], [ [ [ 3365782.637606104835868, 1738356.609035376925021 ], [ 3365785.720280568115413, 1738346.040834994288161 ], [ 3365793.244737098924816, 1738320.194741307524964 ], [ 3365806.967813312541693, 1738321.898560772184283 ], [ 3365834.598421965260059, 1738299.97751227999106 ], [ 3365933.708155754487962, 1738243.482206146465614 ], [ 3365930.265984320547432, 1738228.69141513062641 ], [ 3365925.93281966727227, 1738210.119846278335899 ], [ 3365898.138891098089516, 1738160.83884790702723 ], [ 3365878.926290751434863, 1738117.523461537668481 ], [ 3365855.858458803966641, 1738085.851941970875487 ], [ 3365863.579724035225809, 1738073.866396731929854 ], [ 3365889.380026526283473, 1738057.569918119115755 ], [ 3365913.011517005041242, 1738053.633816698566079 ], [ 3365952.601383826695383, 1738048.369573861826211 ], [ 3365944.705128378234804, 1738023.03689950867556 ], [ 3365974.699652500450611, 1738016.71114934887737 ], [ 3366118.683237283024937, 1738007.378422432811931 ], [ 3366189.78664064919576, 1737996.875818461179733 ], [ 3366213.615588012617081, 1737994.236918236827478 ], [ 3366202.675760502461344, 1737940.083534196484834 ], [ 3366206.27734312415123, 1737919.485271648736671 ], [ 3366169.167867839336395, 1737905.677581787342206 ], [ 3366163.214180717244744, 1737926.133638477651402 ], [ 3366158.561744558159262, 1737942.101272599073127 ], [ 3366042.874599806033075, 1737942.711002838565037 ], [ 3366064.858777154702693, 1737889.844175427686423 ], [ 3366071.449872309342027, 1737873.976774766109884 ], [ 3366106.536469926591963, 1737821.476715065538883 ], [ 3366126.75665026390925, 1737812.779445396270603 ], [ 3366166.562656443566084, 1737835.477314683608711 ], [ 3366183.229195502586663, 1737844.952390908962116 ], [ 3366190.136514904908836, 1737848.879649073118344 ], [ 3366208.236825197935104, 1737808.538071059854701 ], [ 3366227.167736491654068, 1737756.069260567892343 ], [ 3366207.265481969807297, 1737738.841556009836495 ], [ 3366198.001439103391021, 1737736.012034419458359 ], [ 3366191.730148837435991, 1737734.65872356062755 ], [ 3366180.869801050983369, 1737732.306638249196112 ], [ 3366160.501093582250178, 1737729.130307455779985 ], [ 3366169.47276383638382, 1737693.734568531392142 ], [ 3366155.77342678559944, 1737684.631728187669069 ], [ 3366132.611676576547325, 1737669.256631332915276 ], [ 3366112.050845606252551, 1737659.402531802887097 ], [ 3366100.437409495003521, 1737653.841147177387029 ], [ 3366120.395922704134136, 1737618.418934452114627 ], [ 3366194.210119157563895, 1737643.44208456738852 ], [ 3366201.138650862965733, 1737625.110740715870634 ], [ 3366292.924981922842562, 1737655.684204615652561 ], [ 3366333.162022244185209, 1737557.12174026039429 ], [ 3366249.202122124377638, 1737520.801732001360506 ], [ 3366257.368645028211176, 1737500.440747239161283 ], [ 3366270.815528036095202, 1737466.899155682884157 ], [ 3366279.850636791903526, 1737439.139763577375561 ], [ 3366237.816560621839017, 1737424.268089510733262 ], [ 3366227.327384186908603, 1737446.285292200278491 ], [ 3366218.56343765091151, 1737464.660304769407958 ], [ 3366154.592742742970586, 1737443.599160965764895 ], [ 3366161.686298219487071, 1737421.804907284909859 ], [ 3366172.665950922295451, 1737388.099939218256623 ], [ 3366184.967026786413044, 1737355.454408450284973 ], [ 3366183.37674901727587, 1737347.881148696644232 ], [ 3366182.203720901161432, 1737342.313785582780838 ], [ 3366197.107515606563538, 1737311.189311407739297 ], [ 3366201.616171924397349, 1737301.76412155921571 ], [ 3366093.840157540515065, 1737257.069183728424832 ], [ 3366086.891705215442926, 1737282.224337342195213 ], [ 3366039.289877639617771, 1737270.153982482850552 ], [ 3366040.460503041278571, 1737251.300678135827184 ], [ 3365995.667877795640379, 1737240.102430579485372 ], [ 3365988.588368563447148, 1737246.611025896156207 ], [ 3365936.566813616547734, 1737223.287968792486936 ], [ 3365947.307642861735076, 1737178.852885647676885 ], [ 3365913.605979249347001, 1737168.245592921273783 ], [ 3365880.845021866261959, 1737157.935010003158823 ], [ 3365876.100296991411597, 1737154.977454760344699 ], [ 3365861.93614148767665, 1737146.163652518996969 ], [ 3365697.485403413884342, 1737279.92242070264183 ], [ 3365702.747855926863849, 1737286.682576641440392 ], [ 3365623.719919278286397, 1737343.81153232534416 ], [ 3365643.438186853192747, 1737367.185073451139033 ], [ 3365650.824700158089399, 1737415.714020290412009 ], [ 3365571.700354713015258, 1737450.211286851204932 ], [ 3365526.470907879061997, 1737365.33899690466933 ], [ 3365493.566887268796563, 1737385.04518120829016 ], [ 3365515.943214101251215, 1737416.186902273911983 ], [ 3365544.221475252881646, 1737477.144194658612832 ], [ 3365562.84386169956997, 1737517.253134308150038 ], [ 3365530.672338028904051, 1737529.402170635061339 ], [ 3365525.867226801812649, 1737525.245735645759851 ], [ 3365511.292879135347903, 1737535.199185857316479 ], [ 3365498.653243390377611, 1737543.822909214533865 ], [ 3365490.946985262446105, 1737529.833116524387151 ], [ 3365483.658129226882011, 1737516.579784164903685 ], [ 3365445.73145129904151, 1737536.115241139661521 ], [ 3365417.931373385712504, 1737469.809155144030228 ], [ 3365365.001917057670653, 1737499.157963113160804 ], [ 3365351.468688786029816, 1737488.405605355976149 ], [ 3365328.666914771310985, 1737474.058956715278327 ], [ 3365307.858183418400586, 1737460.972155197057873 ], [ 3365292.507170108146966, 1737450.512524355435744 ], [ 3365257.847115912474692, 1737486.026739886263385 ], [ 3365248.667277422267944, 1737498.325826830696315 ], [ 3365215.40024708583951, 1737486.09521957510151 ], [ 3365223.981518979649991, 1737454.018209952162579 ], [ 3365203.958711505867541, 1737464.012919588945806 ], [ 3365181.637207314837724, 1737467.731088949833065 ], [ 3365150.175870000384748, 1737544.871611373964697 ], [ 3365150.175870000384748, 1738385.101929998956621 ], [ 3365764.556556840892881, 1738385.101929998956621 ], [ 3365782.637606104835868, 1738356.609035376925021 ] ] ], [ [ [ 3365167.831648323684931, 1737363.459296620218083 ], [ 3365195.709212593734264, 1737371.973367602797225 ], [ 3365212.475559649057686, 1737377.089291504584253 ], [ 3365223.070399441756308, 1737380.905936687951908 ], [ 3365303.132297206670046, 1737322.948746219510213 ], [ 3365317.179708867799491, 1737333.000886363908648 ], [ 3365336.850982586387545, 1737359.475140432594344 ], [ 3365319.288335602730513, 1737379.749317444628105 ], [ 3365336.973783463705331, 1737397.255315446993336 ], [ 3365355.971249670721591, 1737415.157340647419915 ], [ 3365380.742402986157686, 1737433.951423921855167 ], [ 3365399.802495887968689, 1737415.291675450978801 ], [ 3365413.667157574091107, 1737399.47199118649587 ], [ 3365423.977013944648206, 1737387.710155498469248 ], [ 3365333.861761366482824, 1737326.464296153048053 ], [ 3365330.927332437131554, 1737323.16495658759959 ], [ 3365320.594766113907099, 1737311.57723336503841 ], [ 3365318.064009510912001, 1737300.432920050108805 ], [ 3365287.326936826575547, 1737284.899418393848464 ], [ 3365277.567981402389705, 1737281.961073081241921 ], [ 3365205.985444057732821, 1737260.436225201701745 ], [ 3365216.75515833357349, 1737237.988990747136995 ], [ 3365339.579609741456807, 1737282.794802005169913 ], [ 3365365.239822926931083, 1737273.130665684584528 ], [ 3365392.035201709717512, 1737252.537767125759274 ], [ 3365383.630848578177392, 1737238.775107252644375 ], [ 3365378.399933637585491, 1737230.216409418499097 ], [ 3365354.828381310217083, 1737218.768511035479605 ], [ 3365326.236498204991221, 1737204.892613051459193 ], [ 3365261.059475991874933, 1737178.381604595808312 ], [ 3365269.197009822819382, 1737168.795064832316712 ], [ 3365266.812133612111211, 1737167.167277383385226 ], [ 3365265.63594469986856, 1737165.791527105495334 ], [ 3365264.035561053548008, 1737163.902096892474219 ], [ 3365262.237086011096835, 1737161.179231669986621 ], [ 3365261.66972613800317, 1737160.326706476509571 ], [ 3365259.744947894942015, 1737156.506579386070371 ], [ 3365258.873314161784947, 1737154.122996797552332 ], [ 3365258.275638121180236, 1737152.469539428828284 ], [ 3365258.645060972310603, 1737147.541890085674822 ], [ 3365258.43324524955824, 1737144.746160441311076 ], [ 3365258.273499911651015, 1737142.626842201687396 ], [ 3365257.666718795895576, 1737139.977499152068049 ], [ 3365257.167480511590838, 1737137.834131210576743 ], [ 3365256.084702290128917, 1737135.133101720362902 ], [ 3365255.343453429639339, 1737133.271839387482032 ], [ 3365254.672221005428582, 1737132.204896373907104 ], [ 3365254.152312896680087, 1737131.062373854685575 ], [ 3365254.047352884430438, 1737130.707090201321989 ], [ 3365253.786176611669362, 1737129.793490300187841 ], [ 3365253.617047242820263, 1737128.481717114336789 ], [ 3365253.649411371909082, 1737127.156531301094219 ], [ 3365253.866409811656922, 1737125.840890603605658 ], [ 3365254.285445306450129, 1737124.582270158221945 ], [ 3365254.55111430818215, 1737124.054429473122582 ], [ 3365254.942683753091842, 1737123.283972993027419 ], [ 3365255.791082155425102, 1737122.104956494411454 ], [ 3365256.823706431314349, 1737121.066525211092085 ], [ 3365258.005342651158571, 1737120.204768928000703 ], [ 3365361.340592630207539, 1736998.719054360641167 ], [ 3365403.546584665775299, 1737014.518507448025048 ], [ 3365447.281558745540679, 1737033.811128816334531 ], [ 3365438.933122438378632, 1737077.717052396386862 ], [ 3365460.957411390729249, 1737091.770136492792517 ], [ 3365474.595418431330472, 1737100.469974829582497 ], [ 3365494.810853512492031, 1737099.228656868450344 ], [ 3365483.534781553316861, 1737152.115231615724042 ], [ 3365482.78058715024963, 1737182.797567313769832 ], [ 3365654.520988611504436, 1737050.795816683443263 ], [ 3365633.409379079006612, 1737041.869789430405945 ], [ 3365672.306982216890901, 1736955.428275386337191 ], [ 3365617.582857587374747, 1736937.885119599523023 ], [ 3365630.60746229859069, 1736905.511867217253894 ], [ 3365601.442834357731044, 1736890.814357798080891 ], [ 3365583.432515546679497, 1736925.80124115315266 ], [ 3365567.053341495804489, 1736912.530645404011011 ], [ 3365575.074000156484544, 1736895.689792692195624 ], [ 3365601.064006272703409, 1736841.118528941180557 ], [ 3365617.397428068798035, 1736848.271342215361074 ], [ 3365651.06561595434323, 1736863.004613990429789 ], [ 3365674.689649165142328, 1736841.298238236457109 ], [ 3365681.408166534267366, 1736802.862642089137807 ], [ 3365729.333707057405263, 1736820.268821414327249 ], [ 3365764.753631323575974, 1736833.138779065338895 ], [ 3365837.014256054535508, 1736859.387666635215282 ], [ 3365857.234534138813615, 1736804.417625969741493 ], [ 3365880.636538916267455, 1736740.797596333548427 ], [ 3365895.561382116284221, 1736689.681655886815861 ], [ 3365906.273113674018532, 1736653.009231315925717 ], [ 3365917.921313512139022, 1736613.128263881895691 ], [ 3365868.526931540574878, 1736599.109729654621333 ], [ 3365875.336600572336465, 1736552.37787342723459 ], [ 3365862.260586864314973, 1736543.826105283340439 ], [ 3365753.967837927397341, 1736503.559677374083549 ], [ 3365751.645783262792975, 1736502.344536826945841 ], [ 3365749.779581622220576, 1736502.252357526915148 ], [ 3365725.00299596786499, 1736494.520932088140398 ], [ 3365773.086966830771416, 1736402.475669999606907 ], [ 3365344.364596403203905, 1736402.475669999606907 ], [ 3365305.342633632943034, 1736514.244100898969918 ], [ 3365323.384038883727044, 1736519.379521476104856 ], [ 3365338.65796933369711, 1736523.716554358135909 ], [ 3365356.30913615738973, 1736480.215997786028311 ], [ 3365372.484471914358437, 1736485.460753752617165 ], [ 3365393.027804288081825, 1736492.123910035006702 ], [ 3365384.532217802479863, 1736516.075933455955237 ], [ 3365364.496521031484008, 1736587.104774902574718 ], [ 3365361.859804319217801, 1736596.460035994183272 ], [ 3365419.679845842998475, 1736627.390437476104125 ], [ 3365408.30749728390947, 1736662.329548609210178 ], [ 3365382.396356027107686, 1736651.623856847872958 ], [ 3365374.452888607047498, 1736683.281807781662792 ], [ 3365367.12225903198123, 1736712.480225609382614 ], [ 3365361.554738383274525, 1736716.419879019958898 ], [ 3365354.287146151997149, 1736721.559493851149455 ], [ 3365335.220957082696259, 1736710.560026642400771 ], [ 3365355.521513336338103, 1736624.556191989220679 ], [ 3365340.001361689995974, 1736620.139278881251812 ], [ 3365322.20618400676176, 1736615.083750653546304 ], [ 3365284.30503547238186, 1736704.331496816826984 ], [ 3365269.419970824383199, 1736739.392393357120454 ], [ 3365265.24258152814582, 1736749.25617941073142 ], [ 3365237.615653446409851, 1736745.264037846354768 ], [ 3365221.798129521310329, 1736742.972105056978762 ], [ 3365244.235918898135424, 1736661.115469942800701 ], [ 3365232.964150889310986, 1736655.860013023484498 ], [ 3365218.111874502152205, 1736648.944197906879708 ], [ 3365228.523404497653246, 1736627.685253161936998 ], [ 3365159.540965092368424, 1736603.117702809628099 ], [ 3365150.175870000384748, 1736623.111963748931885 ], [ 3365150.175870000384748, 1737361.745024398434907 ], [ 3365167.831648323684931, 1737363.459296620218083 ] ] ], [ [ [ 3367170.019342025741935, 1736417.541111253434792 ], [ 3367156.798886080272496, 1736451.50713913468644 ], [ 3367175.690529999323189, 1736476.725358795840293 ], [ 3367175.690529999323189, 1736402.97344110859558 ], [ 3367170.019342025741935, 1736417.541111253434792 ] ] ], [ [ [ 3367090.005522466264665, 1736475.090734804747626 ], [ 3367076.787270839791745, 1736544.04515843372792 ], [ 3367144.018530508503318, 1736552.495896890293807 ], [ 3367147.038355797529221, 1736552.879630557494238 ], [ 3367151.056024249177426, 1736511.137040423229337 ], [ 3367175.690529999323189, 1736513.280976609094068 ], [ 3367175.690529999323189, 1736477.571746281115338 ], [ 3367090.005522466264665, 1736475.090734804747626 ] ] ], [ [ [ 3367154.156017890200019, 1736818.184962652390823 ], [ 3367130.6813451978378, 1736804.362592584220693 ], [ 3367155.281725533306599, 1736656.332036057952791 ], [ 3367061.887434926815331, 1736626.557853500824422 ], [ 3367066.95666391402483, 1736602.492071829270571 ], [ 3367074.394026364665478, 1736567.171689855866134 ], [ 3367004.387408030219376, 1736549.511689603328705 ], [ 3367018.45844449242577, 1736473.856694814283401 ], [ 3366988.064778313972056, 1736474.887729715090245 ], [ 3366958.187767469789833, 1736475.903282224433497 ], [ 3366952.613292524591088, 1736477.657599674304947 ], [ 3366946.105433496646583, 1736479.698305214289576 ], [ 3366940.200977378990501, 1736481.557942984858528 ], [ 3366935.699341991916299, 1736531.622163271065801 ], [ 3366913.161189198493958, 1736530.841517863096669 ], [ 3366869.385760778095573, 1736529.335663128178567 ], [ 3366865.569823250174522, 1736521.981987425126135 ], [ 3366814.713913638144732, 1736521.161537778796628 ], [ 3366817.044139981269836, 1736512.734061641152948 ], [ 3366822.226263954304159, 1736492.084830108331516 ], [ 3366825.426241109147668, 1736479.341688786400482 ], [ 3366821.383009264711291, 1736479.72278443351388 ], [ 3366806.847333786543459, 1736481.105513392714784 ], [ 3366761.487133857794106, 1736492.658273173030466 ], [ 3366741.785834135022014, 1736593.238593585789204 ], [ 3366707.958226788789034, 1736734.33380847144872 ], [ 3366663.30824978929013, 1736726.546348075149581 ], [ 3366643.677008842118084, 1736799.632106414064765 ], [ 3366584.280649627558887, 1737020.79726842418313 ], [ 3366520.907813990488648, 1737108.643170117866248 ], [ 3366604.715165782254189, 1737137.342628732789308 ], [ 3366594.003332789987326, 1737168.262265856610611 ], [ 3366584.131659520789981, 1737196.744998779380694 ], [ 3366597.702766763046384, 1737201.930140807991847 ], [ 3366608.431768484879285, 1737206.027016247622669 ], [ 3366605.03709086496383, 1737227.920317583018914 ], [ 3366638.328985919244587, 1737234.365013485774398 ], [ 3366649.209436004981399, 1737208.565420510014519 ], [ 3366739.378392990678549, 1737234.86575410887599 ], [ 3366735.552621493581682, 1737253.324842817615718 ], [ 3366728.514595003798604, 1737287.319977873004973 ], [ 3366801.735035401303321, 1737308.443545623682439 ], [ 3366776.266265260986984, 1737415.31499330396764 ], [ 3366704.825441913679242, 1737405.88398873526603 ], [ 3366661.146383712533861, 1737490.460706151556224 ], [ 3366665.236074585001916, 1737508.437903613783419 ], [ 3366649.987655026372522, 1737539.972148442640901 ], [ 3366647.472359378356487, 1737545.176495942519978 ], [ 3366638.611591166350991, 1737563.517108700005338 ], [ 3366620.35447755176574, 1737558.568337196484208 ], [ 3366578.389471095055342, 1737548.228558514034376 ], [ 3366541.910088989883661, 1737530.336047309683636 ], [ 3366519.324202257208526, 1737598.776896226452664 ], [ 3366529.702286554034799, 1737605.047851209295914 ], [ 3366495.469656883738935, 1737672.053424789570272 ], [ 3366486.795278618112206, 1737667.815924719674513 ], [ 3366475.109796017408371, 1737662.115329522639513 ], [ 3366457.502736611757427, 1737643.71947581670247 ], [ 3366454.522491606883705, 1737643.863193046534434 ], [ 3366434.786390452180058, 1737644.842954577179626 ], [ 3366442.527324422262609, 1737624.895425398601219 ], [ 3366430.813695511780679, 1737620.146547533804551 ], [ 3366423.872396449558437, 1737617.33312675030902 ], [ 3366345.161835815757513, 1737794.216451765969396 ], [ 3366355.876569430809468, 1737797.751418821280822 ], [ 3366360.291733565274626, 1737799.212385023711249 ], [ 3366293.693529352545738, 1737954.242041142657399 ], [ 3366337.947286890354007, 1737970.859629277838394 ], [ 3366394.62504421453923, 1737964.73468308034353 ], [ 3366435.448288798332214, 1737852.644650217145681 ], [ 3366490.38577308319509, 1737718.216110002249479 ], [ 3366521.840104963164777, 1737730.30618961318396 ], [ 3366526.110343533568084, 1737722.925571100786328 ], [ 3366534.574665796477348, 1737725.515583050204441 ], [ 3366543.690525239799172, 1737714.668261065846309 ], [ 3366562.420215995050967, 1737731.547316726064309 ], [ 3366569.023078265599906, 1737783.752934736432508 ], [ 3366560.640617020893842, 1737817.136147068114951 ], [ 3366529.434817416127771, 1737886.307647890411317 ], [ 3366513.995346534997225, 1737882.21957587194629 ], [ 3366501.391995947808027, 1737877.70954771200195 ], [ 3366478.403344503603876, 1737869.488768268609419 ], [ 3366459.423213270492852, 1737910.802796250209212 ], [ 3366437.957815455738455, 1737957.51778171188198 ], [ 3366442.953051516786218, 1737972.684542879695073 ], [ 3366469.685895106755197, 1737980.231338691199198 ], [ 3366499.60238353535533, 1738038.578754381742328 ], [ 3366510.299140696413815, 1738059.445300149498507 ], [ 3366553.755958723369986, 1738044.218552309088409 ], [ 3366571.40228804666549, 1738065.479207283817232 ], [ 3366591.663825334515423, 1738089.880857371725142 ], [ 3366594.064490161370486, 1738132.127445311285555 ], [ 3366601.478491311427206, 1738130.89269305486232 ], [ 3366608.50541631411761, 1738129.722407264634967 ], [ 3366611.017253389116377, 1738127.571222082944587 ], [ 3366623.9941072226502, 1738116.483798547880724 ], [ 3366645.541512043215334, 1738134.223478840198368 ], [ 3366673.665068068541586, 1738177.515662737656385 ], [ 3366701.578266599215567, 1738163.467225802829489 ], [ 3366721.183153485879302, 1738153.603263898054138 ], [ 3366696.024764877278358, 1738032.5138567131944 ], [ 3366646.189261331688613, 1738077.505638962844387 ], [ 3366634.477628362365067, 1738088.080086460337043 ], [ 3366608.578001832589507, 1738041.747751498129219 ], [ 3366567.61666648928076, 1737967.266432262025774 ], [ 3366597.374163429718465, 1737964.799033039947972 ], [ 3366616.578742461279035, 1737963.202569285873324 ], [ 3366615.805114149581641, 1737958.253748835762963 ], [ 3366614.632707880809903, 1737950.751913303276524 ], [ 3366618.283663178328425, 1737912.827119936933741 ], [ 3366627.056290548294783, 1737892.838729345006868 ], [ 3366642.277487953193486, 1737858.185632833978161 ], [ 3366647.587114547379315, 1737839.982958353823051 ], [ 3366638.519130910281092, 1737833.493807004299015 ], [ 3366655.648034815210849, 1737813.312710907775909 ], [ 3366673.680817436426878, 1737790.311312774661928 ], [ 3366667.489768219180405, 1737767.354502909816802 ], [ 3366652.398766643367708, 1737758.936664378968999 ], [ 3366645.424977034796029, 1737755.040560703957453 ], [ 3366685.500147136393934, 1737691.051716770511121 ], [ 3366696.194346376694739, 1737694.318176051368937 ], [ 3366713.740517133846879, 1737699.677521509118378 ], [ 3366753.485814950894564, 1737642.413234012434259 ], [ 3366814.684025326278061, 1737674.545461389003322 ], [ 3366832.502367683686316, 1737683.899470698554069 ], [ 3366802.012552370782942, 1737748.951485072262585 ], [ 3366785.090920373797417, 1737770.427792218048126 ], [ 3366829.430811391212046, 1737796.370786477578804 ], [ 3366877.953439467586577, 1737708.317545586498454 ], [ 3366893.942440730519593, 1737717.019120963755995 ], [ 3366911.716321151703596, 1737726.682798955356702 ], [ 3366919.514702657237649, 1737730.179680345114321 ], [ 3366929.051193909719586, 1737734.465106169926003 ], [ 3366950.779000105336308, 1737726.847173877293244 ], [ 3366970.999290786683559, 1737718.150446912972257 ], [ 3366987.871546698268503, 1737714.000832999357954 ], [ 3367008.882969378028065, 1737710.501876781927422 ], [ 3367013.08369822986424, 1737691.164255923125893 ], [ 3367017.587228783406317, 1737670.406067270319909 ], [ 3367066.903813384007663, 1737684.851497166091576 ], [ 3367080.504249539226294, 1737694.575514102587476 ], [ 3367110.604874540120363, 1737653.576483756536618 ], [ 3367093.59310417342931, 1737639.091045829234645 ], [ 3367156.172470470890403, 1737546.038252613972872 ], [ 3367167.522306100465357, 1737532.149430031422526 ], [ 3367175.690529999323189, 1737532.360376734519377 ], [ 3367175.690529999323189, 1737448.837033120449632 ], [ 3367147.540010252967477, 1737411.156336898216978 ], [ 3367116.085725066252053, 1737399.065760193392634 ], [ 3367096.211247909814119, 1737392.784227309981361 ], [ 3367058.0974808963947, 1737380.734712057979777 ], [ 3367067.379145230166614, 1737317.885246581630781 ], [ 3367079.89983161399141, 1737285.143361438298598 ], [ 3367092.319447372108698, 1737216.431961596943438 ], [ 3367096.757165584713221, 1737157.059035687940195 ], [ 3367115.598026967607439, 1737165.910461713094264 ], [ 3367144.571360928937793, 1737197.072286060079932 ], [ 3367173.58627799898386, 1737184.241674742428586 ], [ 3367153.515190198551863, 1737114.281347124837339 ], [ 3367175.690529999323189, 1737109.278433181345463 ], [ 3367175.690529999323189, 1736818.502345509128645 ], [ 3367154.156017890200019, 1736818.184962652390823 ] ] ], [ [ [ 3367167.309857010375708, 1737915.877038645325229 ], [ 3367175.690529999323189, 1737901.815951163647696 ], [ 3367175.690529999323189, 1737843.194813728798181 ], [ 3367150.083277195226401, 1737835.861536335432902 ], [ 3367130.025533528067172, 1737830.114302771398798 ], [ 3367100.585162144619972, 1737884.342361639719456 ], [ 3367086.069418544881046, 1737877.430477639194578 ], [ 3367048.670869114808738, 1737923.634612638968974 ], [ 3366983.907795306295156, 1737878.444643633905798 ], [ 3366940.033716139383614, 1737848.474688273854554 ], [ 3366904.564534143544734, 1737824.248034656513482 ], [ 3366877.227649589069188, 1737805.578346938593313 ], [ 3366847.389543431811035, 1737857.193101111566648 ], [ 3366923.937917474657297, 1737916.962920879246667 ], [ 3366989.481305001769215, 1737968.1482748540584 ], [ 3367012.370011919178069, 1737986.410247080028057 ], [ 3367059.975818052422255, 1738024.382730928948149 ], [ 3367076.388895862270147, 1738037.809268885059282 ], [ 3367093.803591029252857, 1738052.066406817641109 ], [ 3367059.488000477664173, 1738132.162383188260719 ], [ 3367066.212574634235352, 1738135.223535934463143 ], [ 3367071.49243934545666, 1738137.618554677581415 ], [ 3367108.149576923809946, 1738167.309436173643917 ], [ 3367120.638594896998256, 1738177.420026984531432 ], [ 3367150.311638162471354, 1738177.808119125198573 ], [ 3367089.712618866469711, 1738283.861210220260546 ], [ 3367148.566837731283158, 1738316.706404719734564 ], [ 3367175.690529999323189, 1738269.004514681641012 ], [ 3367175.690529999323189, 1738169.271039570914581 ], [ 3367171.683894685469568, 1738165.71577558782883 ], [ 3367175.690529999323189, 1738164.341894983546808 ], [ 3367175.690529999323189, 1737922.297991519095376 ], [ 3367167.309857010375708, 1737915.877038645325229 ] ] ] ] } }
]
}
